OBJECT_NAME,OBJECT_ID,EPOCH,MEAN_MOTION,ECCENTRICITY,INCLINATION,RA_OF_ASC_NODE,ARG_OF_PERICENTER,MEAN_ANOMALY,EPHEMERIS_TYPE,CLASSIFICATION_TYPE,NORAD_CAT_ID,ELEMENT_SET_NO,REV_AT_EPOCH,BSTAR,MEAN_MOTION_DOT,MEAN_MOTION_DDOT
SKYSAT-C1,2016-040C,2026-07-18T02:02:04.426080,15.36776427,.00003567,96.9547,229.1369,218.0335,142.0885,0,U,41601,999,56261,.13438496E-3,.4754E-4,0
LAPAN-A3,2016-040E,2026-07-18T06:10:41.960640,15.33288781,.00082629,97.1507,194.3886,262.5997,97.4307,0,U,41603,999,55957,.53630673E-4,.1651E-4,0
GAOFEN-3,2016-049A,2026-07-18T07:17:49.696224,14.42219096,.00017558,98.4014,206.6211,82.7302,277.4087,0,U,41727,999,52313,.37468169E-4,.8E-6,0
SKYSAT-C4,2016-058B,2026-07-18T00:23:08.822976,15.49495091,.00035075,96.9165,219.5148,113.6433,246.5188,0,U,41771,999,55024,.18369334E-3,.10029E-3,0
SKYSAT-C5,2016-058C,2026-07-18T01:58:02.950176,15.33742466,.00028697,97.0451,238.3337,153.1495,206.9897,0,U,41772,999,54848,.1250326E-3,.4006E-4,0
SKYSAT-C2,2016-058D,2026-07-18T00:15:14.277888,15.42719384,.00010262,97.0159,219.9577,338.8088,21.3118,0,U,41773,999,54980,.16473306E-3,.711E-4,0
SKYSAT-C3,2016-058E,2026-07-18T01:37:53.540256,15.53790670,.00026158,96.8992,228.7506,130.2906,229.8578,0,U,41774,999,55090,.23062767E-3,.14713E-3,0
ALSAT-1B,2016-059C,2026-07-18T07:10:52.034304,14.72294424,.0010484,97.7752,206.7209,120.9666,239.2573,0,U,41785,999,52515,-.29797474E-4,-.236E-5,0
PATHFINDER 1,2016-059E,2026-07-17T22:51:02.787840,14.67694949,.00299095,97.8178,196.8416,107.3559,253.0921,0,U,41787,999,52422,.53604846E-4,.26E-5,0
SCATSAT 1,2016-059H,2026-07-18T04:29:45.027744,14.79591459,.00554136,98.1176,263.2712,147.0561,213.4123,0,U,41790,999,10617,.88867118E-4,.626E-5,0
GOKTURK 1A,2016-073A,2026-07-18T05:34:49.753056,14.62795473,.00014181,98.1208,93.4150,80.4831,279.6531,0,U,41875,999,51336,.96650039E-4,.446E-5,0
RESOURCESAT-2A,2016-074A,2026-07-18T07:41:38.984640,14.21610444,.00022099,98.7518,272.5689,20.9601,339.1667,0,U,41877,999,49872,.19162133E-3,.376E-5,0
CARTOSAT-2D,2017-008A,2026-07-18T07:29:10.238784,15.19297730,.00062109,97.4083,258.0337,130.3335,229.8443,0,U,41948,999,52230,.12105405E-3,.2488E-4,0
SENTINEL-2B,2017-013A,2026-07-18T07:50:00.421728,14.30815630,.00011978,98.5683,273.6599,92.4567,267.6753,0,U,42063,999,48909,.13207399E-4,-.9E-7,0
CARTOSAT-2E,2017-036C,2026-07-18T07:54:50.476032,15.19267347,.000357,97.4255,258.6159,176.1631,183.9632,0,U,42767,999,50287,.89479512E-4,.1819E-4,0
FORMOSAT-5,2017-049A,2026-07-18T05:22:49.830240,14.50908313,.00111205,98.2244,273.8430,354.4408,5.6661,0,U,42920,999,47117,.205718E-4,.38E-6,0
SENTINEL-5P,2017-064A,2026-07-17T20:43:03.767520,14.19523493,.00011611,98.7929,140.7776,94.1328,265.9981,0,U,42969,999,45391,.2540126E-4,.9E-7,0
SKYSAT-C11,2017-068A,2026-07-17T22:29:10.631904,15.59422768,.00012891,97.4388,349.1483,155.4215,204.7103,0,U,42987,999,48803,.21849398E-3,.17166E-3,0
SKYSAT-C10,2017-068B,2026-07-18T04:38:59.411616,15.35151685,.00015362,97.4547,336.3604,111.7285,248.4122,0,U,42988,999,48711,.16561584E-3,.5568E-4,0
SKYSAT-C9,2017-068C,2026-07-18T03:06:16.542432,15.42257273,.00083874,97.4467,337.5307,35.2867,324.8933,0,U,42989,999,48752,.16840485E-3,.7158E-4,0
SKYSAT-C8,2017-068D,2026-07-18T07:30:13.502592,15.37527335,.00012487,97.4565,336.4004,104.2082,255.9302,0,U,42990,999,48709,.15278732E-3,.554E-4,0
SKYSAT-C7,2017-068E,2026-07-18T02:41:15.693216,15.37475335,.00054702,97.4575,337.1885,11.3778,348.7589,0,U,42991,999,48712,.15903525E-3,.5762E-4,0
SKYSAT-C6,2017-068F,2026-07-17T20:48:44.417664,15.34196805,.00050529,97.4612,336.7817,82.8828,277.2989,0,U,42992,999,48702,.15546302E-3,.5065E-4,0
CARTOSAT-2F,2018-004A,2026-07-18T07:07:05.013984,15.19188667,.0002467,97.4767,258.6248,128.7889,231.3566,0,U,43111,999,47205,.13788447E-3,.2832E-4,0
GAOFEN-1 02,2018-031A,2026-07-18T08:06:02.822688,14.76474104,.00014911,98.0509,261.7750,265.8152,94.2887,0,U,43259,999,44729,.57410245E-4,.348E-5,0
GAOFEN-1 03,2018-031B,2026-07-18T07:34:32.185056,14.76464848,.00021579,98.0501,261.6079,6.3766,353.7470,0,U,43260,999,44728,.5282827E-4,.316E-5,0
GAOFEN-1 04,2018-031D,2026-07-18T06:59:33.777024,14.76441894,.00010361,98.0510,261.7787,51.0649,309.0653,0,U,43262,999,44727,.10756133E-3,.697E-5,0
SENTINEL-3B,2018-039A,2026-07-18T04:29:25.681920,14.26736887,.00012168,98.6234,266.2721,119.6897,240.4405,0,U,43437,999,42854,.37091753E-4,.46E-6,0
GAOFEN-5 01,2018-043A,2026-07-17T21:19:53.721408,14.60624351,.00019415,98.4592,171.1238,26.2193,333.9104,0,U,43461,999,43617,.37552599E-4,.134E-5,0
GAOFEN-6,2018-048A,2026-07-18T07:32:15.565056,14.76384240,.0012063,98.0951,262.0232,72.6968,287.5560,0,U,43484,999,43798,-.17526694E-4,-.174E-5,0
