SKYSAT-C1               
1 41601U 16040C   26199.08477345  .00004754  00000+0  13438-3 0  9999
2 41601  96.9547 229.1369 0000356 218.0335 142.0885 15.36776427562618
LAPAN-A3                
1 41603U 16040E   26199.25743010  .00001651  00000+0  53631-4 0  9998
2 41603  97.1507 194.3886 0008262 262.5997  97.4307 15.33288781559579
GAOFEN-3                
1 41727U 16049A   26199.30404741  .00000080  00000+0  37468-4 0  9990
2 41727  98.4014 206.6211 0001755  82.7302 277.4087 14.42219096523134
SKYSAT-C4               
1 41771U 16058B   26199.01607434  .00010029  00000+0  18369-3 0  9993
2 41771  96.9165 219.5148 0003507 113.6433 246.5188 15.49495091550241
SKYSAT-C5               
1 41772U 16058C   26199.08197859  .00004006  00000+0  12503-3 0  9998
2 41772  97.0451 238.3337 0002869 153.1495 206.9897 15.33742466548482
SKYSAT-C2               
1 41773U 16058D   26199.01058192  .00007110  00000+0  16473-3 0  9997
2 41773  97.0159 219.9577 0001026 338.8088  21.3118 15.42719384549808
SKYSAT-C3               
1 41774U 16058E   26199.06798079  .00014713  00000+0  23063-3 0  9998
2 41774  96.8992 228.7506 0002615 130.2906 229.8578 15.53790670550906
ALSAT-1B                
1 41785U 16059C   26199.29921336 -.00000236  00000+0 -29797-4 0  9998
2 41785  97.7752 206.7209 0010484 120.9666 239.2573 14.72294424525155
PATHFINDER 1            
1 41787U 16059E   26198.95211560  .00000260  00000+0  53605-4 0  9993
2 41787  97.8178 196.8416 0029909 107.3559 253.0921 14.67694949524229
SCATSAT 1               
1 41790U 16059H   26199.18732671  .00000626  00000+0  88867-4 0  9998
2 41790  98.1176 263.2712 0055413 147.0561 213.4123 14.79591459106175
GOKTURK 1A              
1 41875U 16073A   26199.23252029  .00000446  00000+0  96650-4 0  9997
2 41875  98.1208  93.4150 0001418  80.4831 279.6531 14.62795473513364
RESOURCESAT-2A          
1 41877U 16074A   26199.32059010  .00000376  00000+0  19162-3 0  9999
2 41877  98.7518 272.5689 0002209  20.9601 339.1667 14.21610444498729
CARTOSAT-2D             
1 41948U 17008A   26199.31192406  .00002488  00000+0  12105-3 0  9998
2 41948  97.4083 258.0337 0006210 130.3335 229.8443 15.19297730522302
SENTINEL-2B             
1 42063U 17013A   26199.32639377 -.00000009  00000+0  13207-4 0  9990
2 42063  98.5683 273.6599 0001197  92.4567 267.6753 14.30815630489095
CARTOSAT-2E             
1 42767U 17036C   26199.32975088  .00001819  00000+0  89480-4 0  9993
2 42767  97.4255 258.6159 0003570 176.1631 183.9632 15.19267347502875
FORMOSAT-5              
1 42920U 17049A   26199.22418785  .00000038  00000+0  20572-4 0  9992
2 42920  98.2244 273.8430 0011120 354.4408   5.6661 14.50908313471176
SENTINEL-5P             
1 42969U 17064A   26198.86323805  .00000009  00000+0  25401-4 0  9993
2 42969  98.7929 140.7776 0001161  94.1328 265.9981 14.19523493453917
SKYSAT-C11              
1 42987U 17068A   26198.93692861  .00017166  00000+0  21849-3 0  9999
2 42987  97.4388 349.1483 0001289 155.4215 204.7103 15.59422768488035
SKYSAT-C10              
1 42988U 17068B   26199.19374319  .00005568  00000+0  16562-3 0  9993
2 42988  97.4547 336.3604 0001536 111.7285 248.4122 15.35151685487118
SKYSAT-C9               
1 42989U 17068C   26199.12935813  .00007158  00000+0  16840-3 0  9995
2 42989  97.4467 337.5307 0008387  35.2867 324.8933 15.42257273487522
SKYSAT-C8               
1 42990U 17068D   26199.31265628  .00005540  00000+0  15279-3 0  9996
2 42990  97.4565 336.4004 0001248 104.2082 255.9302 15.37527335487099
SKYSAT-C7               
1 42991U 17068E   26199.11198719  .00005762  00000+0  15904-3 0  9992
2 42991  97.4575 337.1885 0005470  11.3778 348.7589 15.37475335487121
SKYSAT-C6               
1 42992U 17068F   26198.86718076  .00005065  00000+0  15546-3 0  9996
2 42992  97.4612 336.7817 0005052  82.8828 277.2989 15.34196805487027
CARTOSAT-2F             
1 43111U 18004A   26199.29658581  .00002832  00000+0  13788-3 0  9998
2 43111  97.4767 258.6248 0002467 128.7889 231.3566 15.19188667472055
GAOFEN-1 02             
1 43259U 18031A   26199.33753267  .00000348  00000+0  57410-4 0  9994
2 43259  98.0509 261.7750 0001491 265.8152  94.2887 14.76474104447290
GAOFEN-1 03             
1 43260U 18031B   26199.31565029  .00000316  00000+0  52828-4 0  9994
2 43260  98.0501 261.6079 0002157   6.3766 353.7470 14.76464848447280
GAOFEN-1 04             
1 43262U 18031D   26199.29136316  .00000697  00000+0  10756-3 0  9991
2 43262  98.0510 261.7787 0001036  51.0649 309.0653 14.76441894447273
SENTINEL-3B             
1 43437U 18039A   26199.18710280  .00000046  00000+0  37092-4 0  9990
2 43437  98.6234 266.2721 0001216 119.6897 240.4405 14.26736887428546
GAOFEN-5 01             
1 43461U 18043A   26198.88881622  .00000134  00000+0  37553-4 0  9997
2 43461  98.4592 171.1238 0001941  26.2193 333.9104 14.60624351436174
GAOFEN-6                
1 43484U 18048A   26199.31406904 -.00000174  00000+0 -17527-4 0  9997
2 43484  98.0951 262.0232 0012063  72.6968 287.5560 14.76384240437987
